ONEWEB-0326             
1 49195U 21083K   24006.46771251  .00000074  00000+0  15614-3 0  9997
2 49195  87.9227 153.0873 0001090  82.5544 277.5712 13.18684231112349
ONEWEB-0327             
1 49196U 21083L   24006.44165621  .00000141  00000+0  32611-3 0  9995
2 49196  87.9222 153.1031 0001098  93.2406 266.8852 13.18685868112361
ONEWEB-0328             
1 49197U 21083M   24006.42003218  .00000336  00000+0  88647-3 0  9993
2 49197  87.9001 137.9301 0001550  97.4984 262.6321 13.13470105113702
ONEWEB-0331             
1 49198U 21083N   24006.46139856  .00000170  00000+0  39817-3 0  9997
2 49198  87.9229 153.0807 0001383  90.2664 269.8627 13.18685531112359
ONEWEB-0333             
1 49199U 21083P   24006.41525096  .00000277  00000+0  72279-3 0  9995
2 49199  87.9012 137.9397 0001658 112.0060 248.1245 13.13471452113710
ONEWEB-0334             
1 49200U 21083Q   24006.24142346  .00000084  00000+0  17452-3 0  9990
2 49200  87.9189  92.2387 0002189 128.6982 231.4347 13.20773044118922
ONEWEB-0335             
1 49201U 21083R   24006.41049238  .00000108  00000+0  26008-3 0  9990
2 49201  87.9010 137.9291 0001627  98.4422 261.6892 13.13471563113722
ONEWEB-0336             
1 49202U 21083S   24006.38032937 -.00000078  00000+0 -24826-3 0  9999
2 49202  87.9013 137.9332 0001547 108.6653 251.4645 13.13468163113717
ONEWEB-0337             
1 49203U 21083T   24006.38972469 -.00000198  00000+0 -57791-3 0  9993
2 49203  87.9011 137.9296 0001613  96.0969 264.0344 13.13469533113717
ONEWEB-0338             
1 49204U 21083U   24006.24774419  .00000065  00000+0  12683-3 0  9996
2 49204  87.9196  92.2116 0002219 111.5331 248.6039 13.20771425118948
ONEWEB-0339             
1 49205U 21083V   24006.40096407  .00000310  00000+0  81492-3 0  9996
2 49205  87.9005 137.9252 0001490  94.1900 265.9400 13.13468759113690
ONEWEB-0340             
1 49206U 21083W   24006.44715887  .00000057  00000+0  11119-3 0  9998
2 49206  87.9228 153.0763 0001488  94.0019 266.1283 13.18684670112318
ONEWEB-0341             
1 49207U 21083X   24006.45507350 -.00000027  00000+0 -10031-3 0  9995
2 49207  87.9233 153.0899 0002203  83.4236 276.7147 13.18686333112330
ONEWEB-0342             
1 49208U 21083Y   24006.25405216 -.00000056  00000+0 -16889-3 0  9991
2 49208  87.9185  92.2338 0002011 110.5125 249.6224 13.20771892118918
ONEWEB-0343             
1 49209U 21083Z   24006.45033387  .00000060  00000+0  11962-3 0  9990
2 49209  87.9221 153.1084 0002222  91.0901 269.0485 13.18680209112382
ONEWEB-0344             
1 49210U 21083AA  24006.36763814  .00000201  00000+0  51652-3 0  9994
2 49210  87.9016 137.9446 0001383  95.9271 264.2016 13.13468908113695
ONEWEB-0345             
1 49211U 21083AB  24006.38508925 -.00000081  00000+0 -25596-3 0  9993
2 49211  87.9006 137.9217 0001703  81.2720 278.8602 13.13468814113704
ONEWEB-0346             
1 49212U 21083AC  24006.45980214 -.00000202  00000+0 -54477-3 0  9992
2 49212  87.9224 153.0981 0001296  78.8883 281.2395 13.18688844112329
ONEWEB-0348             
1 49213U 21083AD  24006.24458255  .00000182  00000+0  41539-3 0  9995
2 49213  87.9187  92.1947 0001646  78.5686 281.5632 13.20770846118948
ONEWEB-0350             
1 49214U 21083AE  24006.39461960 -.00000158  00000+0 -46712-3 0  9992
2 49214  87.9009 137.9111 0001617  86.7444 273.3870 13.13469816113733
ONEWEB-0351             
1 49215U 21083AF  24006.31402852  .00001107  00000+0  26905-2 0  9994
2 49215  87.9190  92.1855 0003388 110.6563 249.4934 13.20764430118916
ONEWEB-0352             
1 49216U 21083AG  24006.37557038  .00000057  00000+0  12019-3 0  9993
2 49216  87.9013 137.9409 0001843 109.8779 250.2549 13.13469172113821
ONEWEB-0354             
1 49217U 21083AH  24006.26352891  .00000080  00000+0  16515-3 0  9993
2 49217  87.9187  92.1748 0002003  94.2361 265.9001 13.20771430118940
ONEWEB-0355             
1 49218U 21083AJ  24006.40572793  .00000033  00000+0  54302-4 0  9990
2 49218  87.9015 137.9352 0001738 101.7282 258.4043 13.13471436113707
ONEWEB-0357             
1 49219U 21083AK  24006.26036972  .00000081  00000+0  16851-3 0  9998
2 49219  87.9192  92.1989 0001799 100.4716 259.6620 13.20772202118945
ONEWEB-0332             
1 49279U 21090A   24006.28089499  .00000132  00000+0  32137-3 0  9998
2 49279  87.8975 107.4615 0001798 117.6950 242.4362 13.14501954110272
ONEWEB-0347             
1 49280U 21090B   24006.25089519  .00000102  00000+0  21822-3 0  9996
2 49280  87.9195  92.1953 0001958 119.8994 240.2334 13.20770661113171
ONEWEB-0349             
1 49281U 21090C   24006.28245676 -.00000318  00000+0 -81512-3 0  9991
2 49281  87.9191  92.1865 0002113 104.2131 255.9237 13.20774548111963
ONEWEB-0353             
1 49282U 21090D   24006.34908069 -.00006772  00000+0 -18304-1 0  9998
2 49282  87.8974 107.4323 0001723 123.8732 236.2562 13.14539616110286
ONEWEB-0356             
1 49283U 21090E   24006.28088094  .00000081  00000+0  16729-3 0  9995
2 49283  87.9187  92.1835 0000798 108.7256 251.3964 13.20773083111961
ONEWEB-0358             
1 49284U 21090F   24006.31086660 -.00022272  00000+0 -54848-1 0  9997
2 49284  87.9195  92.1622 0001011  77.2763 282.8483 13.20888377112696
ONEWEB-0359             
1 49285U 21090G   24006.30773144  .00000004  00000+0 -22797-4 0  9996
2 49285  87.9186  92.1840 0002013  88.4920 271.6444 13.20771954112674
ONEWEB-0360             
1 49286U 21090H   24006.29823959 -.00000030  00000+0 -10529-3 0  9994
2 49286  87.9197  92.1895 0001879 101.5347 258.5997 13.20773031111984
ONEWEB-0361             
1 49287U 21090J   24006.27930654  .00000177  00000+0  40364-3 0  9994
2 49287  87.9190  92.1888 0001661 106.7410 253.3905 13.20770727112439
ONEWEB-0362             
1 49288U 21090K   24006.35866567  .00000023  00000+0  24577-4 0  9994
2 49288  87.9199 122.7080 0002090 104.7325 255.4039 13.19724636109155
ONEWEB-0363             
1 49289U 21090L   24006.29508840 -.00000086  00000+0 -24241-3 0  9993
2 49289  87.9188  92.1798 0001336 100.3453 259.7831 13.20769708112440
ONEWEB-0364             
1 49290U 21090M   24006.25722352  .00000074  00000+0  15013-3 0  9999
2 49290  87.9198  92.2096 0001731 107.6452 252.4870 13.20771960113574
ONEWEB-0365             
1 49291U 21090N   24006.36814415 -.00000392  00000+0 -10110-2 0  9991
2 49291  87.9201 122.6971 0001960 102.6865 257.4487 13.19727663108669
ONEWEB-0366             
1 49292U 21090P   24006.34591521  .00000438  00000+0  11480-2 0  9990
2 49292  87.8976 107.4415 0001697 115.7698 244.3607 13.14503098110265
ONEWEB-0367             
1 49293U 21090Q   24006.29350943 -.00000001  00000+0 -34926-4 0  9996
2 49293  87.9195  92.1742 0001768 114.0193 246.1125 13.20770456111968
ONEWEB-0368             
1 49294U 21090R   24006.26667831  .00000070  00000+0  14009-3 0  9994
2 49294  87.9195  92.2080 0001417 134.7653 225.3596 13.20771049113115
ONEWEB-0369             
1 49295U 21090S   24006.36339775 -.00000273  00000+0 -71416-3 0  9991
2 49295  87.9198 122.6900 0001712 110.8991 249.2325 13.19727833108654
ONEWEB-0370             
1 49296U 21090T   24006.30298063 -.00000063  00000+0 -18786-3 0  9998
2 49296  87.9186  92.1770 0001703 103.3687 256.7636 13.20769449112000
ONEWEB-0371             
1 49297U 21090U   24006.37132317  .00000054  00000+0  10306-3 0  9993
2 49297  87.9200 122.6783 0001798 106.8388 253.2942 13.19729650108691
ONEWEB-0372             
1 49298U 21090V   24006.21603775  .00000057  00000+0  10847-3 0  9991
2 49298  87.9198  92.2009 0001900 109.3376 250.7963 13.20771083111969
ONEWEB-0373             
1 49299U 21090W   24006.24300294  .00000082  00000+0  16906-3 0  9995
2 49299  87.9195  92.2138 0001509 113.2221 246.9071 13.20770541113156
ONEWEB-0374             
1 49300U 21090X   24006.33322767  .00000132  00000+0  32216-3 0  9995
2 49300  87.8973 107.4302 0001609 110.8705 249.2597 13.14502474110264
ONEWEB-0375             
1 49301U 21090Y   24006.23037625  .00000115  00000+0  25085-3 0  9998
2 49301  87.9197  92.1916 0001122  86.8723 273.2538 13.20771201112657
ONEWEB-0376             
1 49302U 21090Z   24006.36971431 -.00000117  00000+0 -32441-3 0  9993
2 49302  87.9201 122.6979 0001933 114.4845 245.6489 13.19726655108693
ONEWEB-0377             
1 49303U 21090AA  24006.29206486 -.00000023  00000+0 -89723-4 0  9999
2 49303  87.9196  92.1711 0001906  97.9396 262.1954 13.20776294112656
ONEWEB-0378             
1 49304U 21090AB  24006.26747246  .00000094  00000+0  20032-3 0  9994
2 49304  87.9198  92.1892 0001523 110.7382 249.3915 13.20770704111915
ONEWEB-0379             
1 49305U 21090AC  24006.32847050  .00000163  00000+0  40428-3 0  9994
2 49305  87.8968 107.4329 0001642 110.3366 249.7941 13.14504795110263
ONEWEB-0380             
1 49306U 21090AD  24006.36656168  .00000046  00000+0  82861-4 0  9995
2 49306  87.9200 122.6924 0001695 102.0157 258.1165 13.19725849108661
ONEWEB-0381             
1 49307U 21090AE  24006.44029086 -.00000059  00000+0 -17740-3 0  9997
2 49307  87.9195  92.1474 0001763 101.1345 258.9987 13.20770022111985
ONEWEB-0382             
1 49308U 21090AF  24006.27614897  .00000108  00000+0  23451-3 0  9998
2 49308  87.9195  92.1784 0001238 106.3274 253.7995 13.20770561111952
ONEWEB-0383             
1 49309U 21090AG  24006.32212813  .00000047  00000+0  91181-4 0  9995
2 49309  87.8980 107.4255 0001484 113.0246 247.1040 13.14502636110297
ONEWEB-0384             
1 49310U 21090AH  24006.27299117  .00000116  00000+0  25428-3 0  9990
2 49310  87.9196  92.1878 0001125 106.8247 253.3009 13.20771275111966
ONEWEB-0385             
1 49311U 21090AJ  24006.26825851  .00000201  00000+0  46293-3 0  9998
2 49311  87.9195  92.1903 0001393  99.0242 261.1049 13.20772420111931
ONEWEB-0386             
1 49312U 21090AK  24006.28561809  .00000058  00000+0  11110-3 0  9991
2 49312  87.9188  92.1929 0001476 108.2831 251.8463 13.20772527111957
